{
  "type": "FeatureCollection",
  "generator": "overpass-turbo",
  "copyright": "The data included in this document is from www.openstreetmap.org. The data is made available under ODbL.",
  "timestamp": "2026-01-18T17:17:29Z",
  "features": [
    {
      "type": "Feature",
      "properties": {
        "@id": "node/495113034",
        "amenity": "drinking_water",
        "check_date": "2025-09-22",
        "fountain": "stone_block",
        "wikimedia_commons": "File:Drinking fountain in Parco del Colle Oppio, Roma, Italia Sep 22, 2025 01-18-55 PM.jpeg"
      },
      "geometry": {
        "type": "Point",
        "coordinates": [
          12.4934283,
          41.8913309
        ]
      },
      "id": "node/495113034"
    }
  ]
}